{"type": "FeatureCollection", "features": [ {"type": "Feature", "properties": {"norad_id": 39019, "name": "PLEIADES 1B", "group": "resource", "lat": 13.52247007855651, "lon": -113.78384036887195, "alt_km": 698.8154136010171, "timestamp": "2025-12-17T15:50:09.433780+00:00", "meta": {"OBJECT_NAME": "PLEIADES 1B", "OBJECT_ID": "2012-068A", "EPOCH": "2025-12-17T08:29:26.407104", "MEAN_MOTION": 14.58557433, "ECCENTRICITY": 0.00011641, "INCLINATION": 98.1794, "RA_OF_ASC_NODE": 63.9327, "ARG_OF_PERICENTER": 83.0317, "MEAN_ANOMALY": 277.1015, "EPHEMERIS_TYPE": 0, "CLASSIFICATION_TYPE": "U", "NORAD_CAT_ID": 39019, "ELEMENT_SET_NO": 999, "REV_AT_EPOCH": 69434, "BSTAR": 8.5006589e-05, "MEAN_MOTION_DOT": 3.5e-06, "MEAN_MOTION_DDOT": 0}, "tle": {"line1": "1 39019U 12068A   25351.35377786  .00000350  00000+0  85007-4 0  9992", "line2": "2 39019  98.1794  63.9327 0001164  83.0317 277.1015 14.58557433694340"}}, "geometry": {"type": "Point", "coordinates": [-113.78384036887195, 13.52247007855651]}}, {"type": "Feature", "properties": {"norad_id": 39030, "name": "GOKTURK 2", "group": "resource", "lat": -42.19868338748434, "lon": -159.89248366586912, "alt_km": 651.5154333928831, "timestamp": "2025-12-17T15:50:09.433791+00:00", "meta": {"OBJECT_NAME": "GOKTURK 2", "OBJECT_ID": "2012-073A", "EPOCH": "2025-12-17T07:53:24.462240", "MEAN_MOTION": 14.75297267, "ECCENTRICITY": 0.00011372, "INCLINATION": 97.6893, "RA_OF_ASC_NODE": 192.7564, "ARG_OF_PERICENTER": 105.9161, "MEAN_ANOMALY": 254.2174, "EPHEMERIS_TYPE": 0, "CLASSIFICATION_TYPE": "U", "NORAD_CAT_ID": 39030, "ELEMENT_SET_NO": 999, "REV_AT_EPOCH": 69769, "BSTAR": 7.6744943e-05, "MEAN_MOTION_DOT": 4.73e-06, "MEAN_MOTION_DDOT": 0}, "tle": {"line1": "1 39030U 12073A   25351.32875535  .00000473  00000+0  76745-4 0  9998", "line2": "2 39030  97.6893 192.7564 0001137 105.9161 254.2174 14.75297267697690"}}, "geometry": {"type": "Point", "coordinates": [-159.89248366586912, -42.19868338748434]}}, {"type": "Feature", "properties": {"norad_id": 39084, "name": "LANDSAT 8", "group": "resource", "lat": -48.6119879801307, "lon": 69.08623432723432, "alt_km": 709.9099496014833, "timestamp": "2025-12-17T15:50:09.433802+00:00", "meta": {"OBJECT_NAME": "LANDSAT 8", "OBJECT_ID": "2013-008A", "EPOCH": "2025-12-17T07:49:17.321952", "MEAN_MOTION": 14.57118584, "ECCENTRICITY": 0.00010605, "INCLINATION": 98.2068, "RA_OF_ASC_NODE": 59.3317, "ARG_OF_PERICENTER": 91.1666, "MEAN_ANOMALY": 268.9654, "EPHEMERIS_TYPE": 0, "CLASSIFICATION_TYPE": "U", "NORAD_CAT_ID": 39084, "ELEMENT_SET_NO": 999, "REV_AT_EPOCH": 67141, "BSTAR": 9.0773366e-05, "MEAN_MOTION_DOT": 3.64e-06, "MEAN_MOTION_DDOT": 0}, "tle": {"line1": "1 39084U 13008A   25351.32589493  .00000364  00000+0  90773-4 0  9997", "line2": "2 39084  98.2068  59.3317 0001060  91.1666 268.9654 14.57118584671416"}}, "geometry": {"type": "Point", "coordinates": [69.08623432723432, -48.6119879801307]}}, {"type": "Feature", "properties": {"norad_id": 39086, "name": "SARAL", "group": "resource", "lat": -45.22854269152349, "lon": -13.19664658581182, "alt_km": 790.4835212551752, "timestamp": "2025-12-17T15:50:09.433812+00:00", "meta": {"OBJECT_NAME": "SARAL", "OBJECT_ID": "2013-009A", "EPOCH": "2025-12-17T06:24:19.100736", "MEAN_MOTION": 14.32758605, "ECCENTRICITY": 0.00029347, "INCLINATION": 98.5502, "RA_OF_ASC_NODE": 175.1382, "ARG_OF_PERICENTER": 100.2152, "MEAN_ANOMALY": 259.9363, "EPHEMERIS_TYPE": 0, "CLASSIFICATION_TYPE": "U", "NORAD_CAT_ID": 39086, "ELEMENT_SET_NO": 999, "REV_AT_EPOCH": 66955, "BSTAR": 5.6312941e-05, "MEAN_MOTION_DOT": 1.1e-06, "MEAN_MOTION_DDOT": 0}, "tle": {"line1": "1 39086U 13009A   25351.26688774  .00000110  00000+0  56313-4 0  9996", "line2": "2 39086  98.5502 175.1382 0002934 100.2152 259.9363 14.32758605669552"}}, "geometry": {"type": "Point", "coordinates": [-13.19664658581182, -45.22854269152349]}}, {"type": "Feature", "properties": {"norad_id": 39150, "name": "GAOFEN-1", "group": "resource", "lat": 56.46630703350016, "lon": 50.086861251480485, "alt_km": 630.5136231555998, "timestamp": "2025-12-17T15:50:09.433823+00:00", "meta": {"OBJECT_NAME": "GAOFEN-1", "OBJECT_ID": "2013-018A", "EPOCH": "2025-12-17T07:26:42.482688", "MEAN_MOTION": 14.76543709, "ECCENTRICITY": 0.00184068, "INCLINATION": 97.9326, "RA_OF_ASC_NODE": 61.8889, "ARG_OF_PERICENTER": 128.9582, "MEAN_ANOMALY": 231.3272, "EPHEMERIS_TYPE": 0, "CLASSIFICATION_TYPE": "U", "NORAD_CAT_ID": 39150, "ELEMENT_SET_NO": 999, "REV_AT_EPOCH": 68140, "BSTAR": 0.00013914674, "MEAN_MOTION_DOT": 9.22e-06, "MEAN_MOTION_DDOT": 0}, "tle": {"line1": "1 39150U 13018A   25351.31021392  .00000922  00000+0  13915-3 0  9992", "line2": "2 39150  97.9326  61.8889 0018406 128.9582 231.3272 14.76543709681405"}}, "geometry": {"type": "Point", "coordinates": [50.086861251480485, 56.46630703350016]}}, {"type": "Feature", "properties": {"norad_id": 39160, "name": "VNREDSAT 1", "group": "resource", "lat": -80.79741682016298, "lon": 106.21239050524167, "alt_km": 685.4752561990463, "timestamp": "2025-12-17T15:50:09.433833+00:00", "meta": {"OBJECT_NAME": "VNREDSAT 1", "OBJECT_ID": "2013-021B", "EPOCH": "2025-12-17T08:01:43.140576", "MEAN_MOTION": 14.64929997, "ECCENTRICITY": 0.00012272, "INCLINATION": 97.9375, "RA_OF_ASC_NODE": 46.4487, "ARG_OF_PERICENTER": 77.8981, "MEAN_ANOMALY": 282.236, "EPHEMERIS_TYPE": 0, "CLASSIFICATION_TYPE": "U", "NORAD_CAT_ID": 39160, "ELEMENT_SET_NO": 999, "REV_AT_EPOCH": 67366, "BSTAR": 0.00010990903, "MEAN_MOTION_DOT": 5.42e-06, "MEAN_MOTION_DDOT": 0}, "tle": {"line1": "1 39160U 13021B   25351.33452709  .00000542  00000+0  10991-3 0  9998", "line2": "2 39160  97.9375  46.4487 0001227  77.8981 282.2360 14.64929997673667"}}, "geometry": {"type": "Point", "coordinates": [106.21239050524167, -80.79741682016298]}}, {"type": "Feature", "properties": {"norad_id": 39227, "name": "ARIRANG-5 (KOMPSAT-5)", "group": "resource", "lat": -26.73308376008501, "lon": 179.7561770385479, "alt_km": 557.870248021306, "timestamp": "2025-12-17T15:50:09.433843+00:00", "meta": {"OBJECT_NAME": "ARIRANG-5 (KOMPSAT-5)", "OBJECT_ID": "2013-042A", "EPOCH": "2025-12-17T07:58:28.838208", "MEAN_MOTION": 15.04525005, "ECCENTRICITY": 0.0003448, "INCLINATION": 97.6147, "RA_OF_ASC_NODE": 175.5698, "ARG_OF_PERICENTER": 42.7296, "MEAN_ANOMALY": 317.4197, "EPHEMERIS_TYPE": 0, "CLASSIFICATION_TYPE": "U", "NORAD_CAT_ID": 39227, "ELEMENT_SET_NO": 999, "REV_AT_EPOCH": 67651, "BSTAR": 0.00015536284, "MEAN_MOTION_DOT": 2.116e-05, "MEAN_MOTION_DDOT": 0}, "tle": {"line1": "1 39227U 13042A   25351.33227822  .00002116  00000+0  15536-3 0  9990", "line2": "2 39227  97.6147 175.5698 0003448  42.7296 317.4197 15.04525005676513"}}, "geometry": {"type": "Point", "coordinates": [179.7561770385479, -26.73308376008501]}}, {"type": "Feature", "properties": {"norad_id": 39418, "name": "SKYSAT-A", "group": "resource", "lat": 67.17434138148275, "lon": -120.2671517174911, "alt_km": 528.9462399684635, "timestamp": "2025-12-17T15:50:09.433854+00:00", "meta": {"OBJECT_NAME": "SKYSAT-A", "OBJECT_ID": "2013-066C", "EPOCH": "2025-12-17T02:37:57.865728", "MEAN_MOTION": 15.11635302, "ECCENTRICITY": 0.00209845, "INCLINATION": 97.4107, "RA_OF_ASC_NODE": 41.1857, "ARG_OF_PERICENTER": 220.7174, "MEAN_ANOMALY": 139.2489, "EPHEMERIS_TYPE": 0, "CLASSIFICATION_TYPE": "U", "NORAD_CAT_ID": 39418, "ELEMENT_SET_NO": 999, "REV_AT_EPOCH": 66096, "BSTAR": 0.00017171952, "MEAN_MOTION_DOT": 2.869e-05, "MEAN_MOTION_DDOT": 0}, "tle": {"line1": "1 39418U 13066C   25351.10969752  .00002869  00000+0  17172-3 0  9991", "line2": "2 39418  97.4107  41.1857 0020984 220.7174 139.2489 15.11635302660967"}}, "geometry": {"type": "Point", "coordinates": [-120.2671517174911, 67.17434138148275]}}, {"type": "Feature", "properties": {"norad_id": 39419, "name": "DUBAISAT-2", "group": "resource", "lat": -16.530029950717886, "lon": 159.6918279533422, "alt_km": 548.0930537025242, "timestamp": "2025-12-17T15:50:09.433864+00:00", "meta": {"OBJECT_NAME": "DUBAISAT-2", "OBJECT_ID": "2013-066D", "EPOCH": "2025-12-17T05:24:49.647168", "MEAN_MOTION": 15.08402819, "ECCENTRICITY": 0.00101045, "INCLINATION": 97.4443, "RA_OF_ASC_NODE": 341.4949, "ARG_OF_PERICENTER": 305.3882, "MEAN_ANOMALY": 54.6402, "EPHEMERIS_TYPE": 0, "CLASSIFICATION_TYPE": "U", "NORAD_CAT_ID": 39419, "ELEMENT_SET_NO": 999, "REV_AT_EPOCH": 65894, "BSTAR": 0.00025008151, "MEAN_MOTION_DOT": 3.832e-05, "MEAN_MOTION_DDOT": 0}, "tle": {"line1": "1 39419U 13066D   25351.22557462  .00003832  00000+0  25008-3 0  9994", "line2": "2 39419  97.4443 341.4949 0010104 305.3882  54.6402 15.08402819658949"}}, "geometry": {"type": "Point", "coordinates": [159.6918279533422, -16.530029950717886]}}, {"type": "Feature", "properties": {"norad_id": 39574, "name": "GPM-CORE", "group": "resource", "lat": -64.79358865164635, "lon": 99.23627502595828, "alt_km": 432.8216734403377, "timestamp": "2025-12-17T15:50:09.433874+00:00", "meta": {"OBJECT_NAME": "GPM-CORE", "OBJECT_ID": "2014-009C", "EPOCH": "2025-12-17T06:54:48.936096", "MEAN_MOTION": 15.44534475, "ECCENTRICITY": 0.00095659, "INCLINATION": 64.9726, "RA_OF_ASC_NODE": 197.4504, "ARG_OF_PERICENTER": 246.8612, "MEAN_ANOMALY": 113.1521, "EPHEMERIS_TYPE": 0, "CLASSIFICATION_TYPE": "U", "NORAD_CAT_ID": 39574, "ELEMENT_SET_NO": 999, "REV_AT_EPOCH": 66971, "BSTAR": 0.00014120098, "MEAN_MOTION_DOT": 6.347e-05, "MEAN_MOTION_DDOT": 0}, "tle": {"line1": "1 39574U 14009C   25351.28806639  .00006347  00000+0  14120-3 0  9990", "line2": "2 39574  64.9726 197.4504 0009565 246.8612 113.1521 15.44534475669713"}}, "geometry": {"type": "Point", "coordinates": [99.23627502595828, -64.79358865164635]}}]}